[
  {
    "COMMENT": "GENERATED VIA SPACETRACK.ORG API",
    "ORIGINATOR": "18 SPCS",
    "NORAD_CAT_ID": "27421",
    "OBJECT_NAME": "SPOT 5",
    "OBJECT_TYPE": "PAYLOAD",
    "CLASSIFICATION_TYPE": "U",
    "INTLDES": "02021A",
    "EPOCH": "2023-05-27 10:29:36",
    "EPOCH_MICROSECONDS": "413664",
    "MEAN_MOTION": "14.526358",
    "ECCENTRICITY": "0.0134907",
    "INCLINATION": "98.1403",
    "RA_OF_ASC_NODE": "211.0465",
    "ARG_OF_PERICENTER": "137.5445",
    "MEAN_ANOMALY": "223.6282",
    "EPHEMERIS_TYPE": "0",
    "ELEMENT_SET_NO": "999",
    "REV_AT_EPOCH": "10063",
    "BSTAR": "0.000079596",
    "MEAN_MOTION_DOT": "0.00000318",
    "MEAN_MOTION_DDOT": "0",
    "FILE": "3918334",
    "TLE_LINE0": "0 SPOT 5",
    "TLE_LINE1": "1 27421U 02021A   23147.43722701  .00000318  00000-0  79596-4 0  9996",
    "TLE_LINE2": "2 27421  98.1403 211.0465 0134907 137.5445 223.6282 14.52635800100634",
    "OBJECT_ID": "2002-021A",
    "OBJECT_NUMBER": "27421",
    "SEMIMAJOR_AXIS": "7095.190",
    "PERIOD": "99.130",
    "APOGEE": "812.774",
    "PERIGEE": "621.336",
    "DECAYED": "0"
  },
  {
    "COMMENT": "GENERATED VIA SPACETRACK.ORG API",
    "ORIGINATOR": "18 SPCS",
    "NORAD_CAT_ID": "27421",
    "OBJECT_NAME": "SPOT 5",
    "OBJECT_TYPE": "PAYLOAD",
    "CLASSIFICATION_TYPE": "U",
    "INTLDES": "02021A",
    "EPOCH": "2023-05-27 18:45:33",
    "EPOCH_MICROSECONDS": "365952",
    "MEAN_MOTION": "14.52636104",
    "ECCENTRICITY": "0.0134915",
    "INCLINATION": "98.1402",
    "RA_OF_ASC_NODE": "211.3808",
    "ARG_OF_PERICENTER": "136.4902",
    "MEAN_ANOMALY": "224.7033",
    "EPHEMERIS_TYPE": "0",
    "ELEMENT_SET_NO": "999",
    "REV_AT_EPOCH": "10068",
    "BSTAR": "0.000079853",
    "MEAN_MOTION_DOT": "0.00000319",
    "MEAN_MOTION_DDOT": "0",
    "FILE": "3918598",
    "TLE_LINE0": "0 SPOT 5",
    "TLE_LINE1": "1 27421U 02021A   23147.78163618  .00000319  00000-0  79853-4 0  9997",
    "TLE_LINE2": "2 27421  98.1402 211.3808 0134915 136.4902 224.7033 14.52636104100681",
    "OBJECT_ID": "2002-021A",
    "OBJECT_NUMBER": "27421",
    "SEMIMAJOR_AXIS": "7095.189",
    "PERIOD": "99.130",
    "APOGEE": "812.778",
    "PERIGEE": "621.329",
    "DECAYED": "0"
  },
  {
    "COMMENT": "GENERATED VIA SPACETRACK.ORG API",
    "ORIGINATOR": "18 SPCS",
    "NORAD_CAT_ID": "27421",
    "OBJECT_NAME": "SPOT 5",
    "OBJECT_TYPE": "PAYLOAD",
    "CLASSIFICATION_TYPE": "U",
    "INTLDES": "02021A",
    "EPOCH": "2023-05-27 18:45:33",
    "EPOCH_MICROSECONDS": "365952",
    "MEAN_MOTION": "14.52636104",
    "ECCENTRICITY": "0.0134915",
    "INCLINATION": "98.1402",
    "RA_OF_ASC_NODE": "211.3808",
    "ARG_OF_PERICENTER": "136.4902",
    "MEAN_ANOMALY": "224.7033",
    "EPHEMERIS_TYPE": "0",
    "ELEMENT_SET_NO": "999",
    "REV_AT_EPOCH": "10064",
    "BSTAR": "0.000079853",
    "MEAN_MOTION_DOT": "0.00000319",
    "MEAN_MOTION_DDOT": "0",
    "FILE": "3918755",
    "TLE_LINE0": "0 SPOT 5",
    "TLE_LINE1": "1 27421U 02021A   23147.78163618  .00000319  00000-0  79853-4 0  9997",
    "TLE_LINE2": "2 27421  98.1402 211.3808 0134915 136.4902 224.7033 14.52636104100647",
    "OBJECT_ID": "2002-021A",
    "OBJECT_NUMBER": "27421",
    "SEMIMAJOR_AXIS": "7095.189",
    "PERIOD": "99.130",
    "APOGEE": "812.778",
    "PERIGEE": "621.329",
    "DECAYED": "0"
  },
  {
    "COMMENT": "GENERATED VIA SPACETRACK.ORG API",
    "ORIGINATOR": "18 SPCS",
    "NORAD_CAT_ID": "27421",
    "OBJECT_NAME": "SPOT 5",
    "OBJECT_TYPE": "PAYLOAD",
    "CLASSIFICATION_TYPE": "U",
    "INTLDES": "02021A",
    "EPOCH": "2023-05-28 03:01:30",
    "EPOCH_MICROSECONDS": "308736",
    "MEAN_MOTION": "14.52636368",
    "ECCENTRICITY": "0.0134932",
    "INCLINATION": "98.1402",
    "RA_OF_ASC_NODE": "211.7152",
    "ARG_OF_PERICENTER": "135.4352",
    "MEAN_ANOMALY": "225.7789",
    "EPHEMERIS_TYPE": "0",
    "ELEMENT_SET_NO": "999",
    "REV_AT_EPOCH": "10073",
    "BSTAR": "0.000079074",
    "MEAN_MOTION_DOT": "0.00000316",
    "MEAN_MOTION_DDOT": "0",
    "FILE": "3918806",
    "TLE_LINE0": "0 SPOT 5",
    "TLE_LINE1": "1 27421U 02021A   23148.12604524  .00000316  00000-0  79074-4 0  9994",
    "TLE_LINE2": "2 27421  98.1402 211.7152 0134932 135.4352 225.7789 14.52636368100731",
    "OBJECT_ID": "2002-021A",
    "OBJECT_NUMBER": "27421",
    "SEMIMAJOR_AXIS": "7095.188",
    "PERIOD": "99.130",
    "APOGEE": "812.790",
    "PERIGEE": "621.316",
    "DECAYED": "0"
  },
  {
    "COMMENT": "GENERATED VIA SPACETRACK.ORG API",
    "ORIGINATOR": "18 SPCS",
    "NORAD_CAT_ID": "27421",
    "OBJECT_NAME": "SPOT 5",
    "OBJECT_TYPE": "PAYLOAD",
    "CLASSIFICATION_TYPE": "U",
    "INTLDES": "02021A",
    "EPOCH": "2023-05-28 04:40:41",
    "EPOCH_MICROSECONDS": "691072",
    "MEAN_MOTION": "14.52636621",
    "ECCENTRICITY": "0.0134933",
    "INCLINATION": "98.1402",
    "RA_OF_ASC_NODE": "211.782",
    "ARG_OF_PERICENTER": "135.2237",
    "MEAN_ANOMALY": "225.9945",
    "EPHEMERIS_TYPE": "0",
    "ELEMENT_SET_NO": "999",
    "REV_AT_EPOCH": "10074",
    "BSTAR": "0.000086451",
    "MEAN_MOTION_DOT": "0.0000035",
    "MEAN_MOTION_DDOT": "0",
    "FILE": "3919094",
    "TLE_LINE0": "0 SPOT 5",
    "TLE_LINE1": "1 27421U 02021A   23148.19492698  .00000350  00000-0  86451-4 0  9993",
    "TLE_LINE2": "2 27421  98.1402 211.7820 0134933 135.2237 225.9945 14.52636621100743",
    "OBJECT_ID": "2002-021A",
    "OBJECT_NUMBER": "27421",
    "SEMIMAJOR_AXIS": "7095.187",
    "PERIOD": "99.130",
    "APOGEE": "812.790",
    "PERIGEE": "621.315",
    "DECAYED": "0"
  },
  {
    "COMMENT": "GENERATED VIA SPACETRACK.ORG API",
    "ORIGINATOR": "18 SPCS",
    "NORAD_CAT_ID": "27421",
    "OBJECT_NAME": "SPOT 5",
    "OBJECT_TYPE": "PAYLOAD",
    "CLASSIFICATION_TYPE": "U",
    "INTLDES": "02021A",
    "EPOCH": "2023-05-28 04:40:41",
    "EPOCH_MICROSECONDS": "691072",
    "MEAN_MOTION": "14.52636621",
    "ECCENTRICITY": "0.0134933",
    "INCLINATION": "98.1402",
    "RA_OF_ASC_NODE": "211.782",
    "ARG_OF_PERICENTER": "135.2237",
    "MEAN_ANOMALY": "225.9945",
    "EPHEMERIS_TYPE": "0",
    "ELEMENT_SET_NO": "999",
    "REV_AT_EPOCH": "10070",
    "BSTAR": "0.000086451",
    "MEAN_MOTION_DOT": "0.0000035",
    "MEAN_MOTION_DDOT": "0",
    "FILE": "3919252",
    "TLE_LINE0": "0 SPOT 5",
    "TLE_LINE1": "1 27421U 02021A   23148.19492698  .00000350  00000-0  86451-4 0  9993",
    "TLE_LINE2": "2 27421  98.1402 211.7820 0134933 135.2237 225.9945 14.52636621100709",
    "OBJECT_ID": "2002-021A",
    "OBJECT_NUMBER": "27421",
    "SEMIMAJOR_AXIS": "7095.187",
    "PERIOD": "99.130",
    "APOGEE": "812.790",
    "PERIGEE": "621.315",
    "DECAYED": "0"
  },
  {
    "COMMENT": "GENERATED VIA SPACETRACK.ORG API",
    "ORIGINATOR": "18 SPCS",
    "NORAD_CAT_ID": "27421",
    "OBJECT_NAME": "SPOT 5",
    "OBJECT_TYPE": "PAYLOAD",
    "CLASSIFICATION_TYPE": "U",
    "INTLDES": "02021A",
    "EPOCH": "2023-05-28 17:54:12",
    "EPOCH_MICROSECONDS": "761856",
    "MEAN_MOTION": "14.5263716",
    "ECCENTRICITY": "0.0134962",
    "INCLINATION": "98.1402",
    "RA_OF_ASC_NODE": "212.317",
    "ARG_OF_PERICENTER": "133.5329",
    "MEAN_ANOMALY": "227.7174",
    "EPHEMERIS_TYPE": "0",
    "ELEMENT_SET_NO": "999",
    "REV_AT_EPOCH": "10082",
    "BSTAR": "0.000089024",
    "MEAN_MOTION_DOT": "0.00000362",
    "MEAN_MOTION_DDOT": "0",
    "FILE": "3919396",
    "TLE_LINE0": "0 SPOT 5",
    "TLE_LINE1": "1 27421U 02021A   23148.74598104  .00000362  00000-0  89024-4 0  9995",
    "TLE_LINE2": "2 27421  98.1402 212.3170 0134962 133.5329 227.7174 14.52637160100825",
    "OBJECT_ID": "2002-021A",
    "OBJECT_NUMBER": "27421",
    "SEMIMAJOR_AXIS": "7095.185",
    "PERIOD": "99.130",
    "APOGEE": "812.808",
    "PERIGEE": "621.292",
    "DECAYED": "0"
  },
  {
    "COMMENT": "GENERATED VIA SPACETRACK.ORG API",
    "ORIGINATOR": "18 SPCS",
    "NORAD_CAT_ID": "27421",
    "OBJECT_NAME": "SPOT 5",
    "OBJECT_TYPE": "PAYLOAD",
    "CLASSIFICATION_TYPE": "U",
    "INTLDES": "02021A",
    "EPOCH": "2023-05-28 21:12:35",
    "EPOCH_MICROSECONDS": "527392",
    "MEAN_MOTION": "14.52637252",
    "ECCENTRICITY": "0.0134966",
    "INCLINATION": "98.1402",
    "RA_OF_ASC_NODE": "212.4508",
    "ARG_OF_PERICENTER": "133.1116",
    "MEAN_ANOMALY": "228.1465",
    "EPHEMERIS_TYPE": "0",
    "ELEMENT_SET_NO": "999",
    "REV_AT_EPOCH": "10080",
    "BSTAR": "0.000089198",
    "MEAN_MOTION_DOT": "0.00000363",
    "MEAN_MOTION_DDOT": "0",
    "FILE": "3919546",
    "TLE_LINE0": "0 SPOT 5",
    "TLE_LINE1": "1 27421U 02021A   23148.88374453  .00000363  00000-0  89198-4 0  9992",
    "TLE_LINE2": "2 27421  98.1402 212.4508 0134966 133.1116 228.1465 14.52637252100803",
    "OBJECT_ID": "2002-021A",
    "OBJECT_NUMBER": "27421",
    "SEMIMAJOR_AXIS": "7095.185",
    "PERIOD": "99.130",
    "APOGEE": "812.811",
    "PERIGEE": "621.289",
    "DECAYED": "0"
  },
  {
    "COMMENT": "GENERATED VIA SPACETRACK.ORG API",
    "ORIGINATOR": "18 SPCS",
    "NORAD_CAT_ID": "27421",
    "OBJECT_NAME": "SPOT 5",
    "OBJECT_TYPE": "PAYLOAD",
    "CLASSIFICATION_TYPE": "U",
    "INTLDES": "02021A",
    "EPOCH": "2023-05-29 03:49:21",
    "EPOCH_MICROSECONDS": "50688",
    "MEAN_MOTION": "14.52637412",
    "ECCENTRICITY": "0.0134977",
    "INCLINATION": "98.1402",
    "RA_OF_ASC_NODE": "212.7183",
    "ARG_OF_PERICENTER": "132.2679",
    "MEAN_ANOMALY": "229.0056",
    "EPHEMERIS_TYPE": "0",
    "ELEMENT_SET_NO": "999",
    "REV_AT_EPOCH": "10088",
    "BSTAR": "0.000086126",
    "MEAN_MOTION_DOT": "0.00000348",
    "MEAN_MOTION_DDOT": "0",
    "FILE": "3919683",
    "TLE_LINE0": "0 SPOT 5",
    "TLE_LINE1": "1 27421U 02021A   23149.15927142  .00000348  00000-0  86126-4 0  9993",
    "TLE_LINE2": "2 27421  98.1402 212.7183 0134977 132.2679 229.0056 14.52637412100883",
    "OBJECT_ID": "2002-021A",
    "OBJECT_NUMBER": "27421",
    "SEMIMAJOR_AXIS": "7095.184",
    "PERIOD": "99.130",
    "APOGEE": "812.818",
    "PERIGEE": "621.281",
    "DECAYED": "0"
  }
]